{"type":"FeatureCollection","features":[{"type":"Feature","properties":{"k":"main","name":"Main corridor","km":9.42,"min":14.2,"legs":[{"from":"nanda-ki-chowki","to":"pondha","km":4.32,"min":6.5},{"from":"pondha","to":"upes-bidholi","km":5.1,"min":7.7}]},"geometry":{"type":"LineString","coordinates":[[77.95312,30.343476],[77.953328,30.344072],[77.953502,30.34466],[77.953531,30.344933],[77.953557,30.345057],[77.953587,30.345139],[77.953652,30.345241],[77.953965,30.345666],[77.95406,30.345808],[77.954127,30.34591],[77.954441,30.346412],[77.954651,30.346713],[77.9548,30.346926],[77.95527,30.347431],[77.955607,30.347713],[77.955696,30.347787],[77.95589,30.347906],[77.956055,30.348007],[77.956539,30.348283],[77.956957,30.348522],[77.957836,30.349037],[77.958652,30.349638],[77.95943,30.350241],[77.960272,30.350773],[77.960883,30.351519],[77.961592,30.352347],[77.962241,30.353023],[77.962959,30.353616],[77.963063,30.353721],[77.963646,30.354319],[77.964333,30.355097],[77.964864,30.35574],[77.965411,30.356568],[77.965851,30.357453],[77.965896,30.357566],[77.966033,30.358219],[77.966076,30.358356],[77.966107,30.358416],[77.966133,30.358449],[77.966613,30.359229],[77.966905,30.359946],[77.966977,30.360064],[77.967511,30.360658],[77.967621,30.360796],[77.967698,30.360975],[77.967776,30.36116],[77.967986,30.361654],[77.968115,30.361836],[77.968608,30.362426],[77.969123,30.363177],[77.969241,30.363299],[77.969939,30.363871],[77.970494,30.364426],[77.970746,30.364748],[77.971084,30.365178],[77.971472,30.365726],[77.971618,30.365933],[77.97191,30.366337],[77.972186,30.36672],[77.972704,30.367574],[77.973127,30.36819],[77.973195,30.368289],[77.973482,30.368633],[77.973522,30.368707],[77.97368,30.369177],[77.973823,30.369509],[77.974034,30.369999],[77.974352,30.370787],[77.97452,30.371214],[77.974592,30.371327],[77.974673,30.37142],[77.974895,30.371653],[77.975172,30.371942],[77.975249,30.372017],[77.975797,30.37241],[77.975893,30.372452],[77.976156,30.372528],[77.976232,30.372559],[77.976295,30.372588],[77.976502,30.372794],[77.976569,30.372907],[77.976741,30.373276],[77.976818,30.373448],[77.976883,30.373539],[77.976958,30.373615],[77.977156,30.373775],[77.977205,30.373839],[77.977468,30.374379],[77.977758,30.374979],[77.977725,30.375007],[77.977384,30.375305],[77.976855,30.375768],[77.976389,30.376251],[77.976382,30.376285],[77.976375,30.376316],[77.976258,30.376875],[77.976179,30.37728],[77.976129,30.377519],[77.976056,30.378051],[77.976043,30.378141],[77.975983,30.378675],[77.975988,30.378771],[77.976012,30.37887],[77.976132,30.379121],[77.976258,30.379386],[77.976281,30.379435],[77.9764,30.379688],[77.976438,30.379815],[77.97643,30.379944],[77.976172,30.380545],[77.975912,30.381068],[77.975872,30.381124],[77.975805,30.381174],[77.975366,30.38142],[77.975292,30.381467],[77.975241,30.381545],[77.974949,30.382047],[77.974649,30.382583],[77.974447,30.383034],[77.974391,30.383184],[77.974372,30.38333],[77.974391,30.383849],[77.974332,30.384204],[77.974262,30.384407],[77.973951,30.384764],[77.973876,30.384879],[77.973855,30.385026],[77.973911,30.385451],[77.973903,30.385501],[77.973871,30.385537],[77.973446,30.385767],[77.973387,30.385811],[77.973346,30.385852],[77.973302,30.385913],[77.973272,30.385966],[77.973135,30.386321],[77.973052,30.386492],[77.973007,30.386551],[77.972968,30.386584],[77.972903,30.386607],[77.97283,30.386607],[77.972402,30.386537],[77.972172,30.386504],[77.972075,30.386493],[77.972007,30.386486],[77.971981,30.386489],[77.971955,30.386493],[77.971935,30.386499],[77.97191,30.386511],[77.971892,30.386525],[77.971642,30.386913],[77.971576,30.386989],[77.971562,30.387001],[77.971547,30.387009],[77.971522,30.387017],[77.971497,30.387022],[77.971053,30.387056],[77.971004,30.387067],[77.970962,30.387085],[77.970925,30.387109],[77.970885,30.387146],[77.970696,30.387426],[77.970633,30.38752],[77.970419,30.387797],[77.970124,30.388129],[77.969851,30.388408],[77.969793,30.388488],[77.96976,30.38855],[77.969744,30.388613],[77.969712,30.388986],[77.969691,30.389233],[77.969679,30.389268],[77.96966,30.389304],[77.969615,30.389361],[77.969566,30.389418],[77.969527,30.389461],[77.96944,30.389568],[77.969362,30.389685],[77.969304,30.389822],[77.969247,30.390004],[77.96923,30.390118],[77.969225,30.390225],[77.969226,30.390486],[77.969222,30.390537],[77.969214,30.390582],[77.969171,30.390728],[77.96916,30.390766],[77.969077,30.391062],[77.969029,30.391193],[77.968956,30.391318],[77.968923,30.391365],[77.968884,30.39142],[77.968804,30.391511],[77.968642,30.391671],[77.968416,30.391885],[77.968332,30.392],[77.968263,30.392134],[77.968211,30.392276],[77.968163,30.392505],[77.968133,30.392717],[77.968119,30.392886],[77.968116,30.392933],[77.968128,30.393178],[77.968169,30.393404],[77.968248,30.393686],[77.968316,30.393935],[77.968329,30.394065],[77.968343,30.394196],[77.968366,30.394316],[77.968404,30.394415],[77.968451,30.394527],[77.968666,30.395003],[77.9687,30.395121],[77.968713,30.395226],[77.968716,30.39533],[77.968718,30.395412],[77.968724,30.395551],[77.968746,30.395672],[77.968777,30.39576],[77.968804,30.395861],[77.968811,30.395894],[77.968821,30.395943],[77.968813,30.396038],[77.9688,30.396298],[77.968805,30.396367],[77.968816,30.396426],[77.968945,30.396946],[77.968947,30.396958],[77.968982,30.397183],[77.968995,30.397355],[77.969054,30.397774],[77.969076,30.397877],[77.969157,30.398259],[77.96921,30.398615],[77.96922,30.398682],[77.969298,30.39913],[77.969359,30.39948],[77.969369,30.399574],[77.969373,30.399656],[77.969359,30.399706],[77.969344,30.399738],[77.969323,30.399782],[77.969207,30.399965],[77.969068,30.40015],[77.96893,30.400311],[77.968861,30.400392],[77.968823,30.400447],[77.968796,30.400508],[77.968778,30.400561],[77.968772,30.400628],[77.968773,30.400773],[77.968802,30.40125],[77.968851,30.401706],[77.968967,30.402327],[77.968978,30.402383],[77.968987,30.402411],[77.96913,30.402778],[77.969198,30.403042],[77.969331,30.403523],[77.969472,30.403952],[77.969572,30.404216],[77.969649,30.404419],[77.969675,30.404507],[77.969778,30.404848],[77.969809,30.404968],[77.969914,30.405379],[77.969987,30.405831],[77.970055,30.406145],[77.970147,30.406506],[77.970163,30.40659],[77.970175,30.406689],[77.970177,30.406803],[77.97016,30.40697],[77.970112,30.407301],[77.970034,30.407582],[77.970032,30.407742],[77.970041,30.407846],[77.970055,30.407948],[77.970081,30.408148],[77.970079,30.408365],[77.970076,30.408443],[77.97006,30.408601],[77.970035,30.408761],[77.969996,30.408907],[77.969973,30.408983],[77.969942,30.409042],[77.969909,30.40908],[77.969867,30.409117],[77.96982,30.409147],[77.969739,30.409188],[77.969477,30.409289],[77.969436,30.409311],[77.969384,30.409342],[77.969333,30.409382],[77.969257,30.409464],[77.969079,30.409688],[77.969063,30.409713],[77.968923,30.409919],[77.968635,30.410379],[77.968493,30.410598],[77.968486,30.410611],[77.968387,30.410813],[77.968038,30.411492],[77.967498,30.41241],[77.967094,30.413156],[77.967015,30.413308],[77.966876,30.413579],[77.966662,30.41394],[77.966541,30.414143],[77.966199,30.414765],[77.966022,30.415161],[77.965996,30.415266],[77.965969,30.415397],[77.965953,30.415522],[77.96594,30.415712],[77.965989,30.415724]]}},{"type":"Feature","properties":{"k":"spur","name":"Kandholi link (north)","km":0.46},"geometry":{"type":"LineString","coordinates":[[77.969669,30.383778],[77.969697,30.383769],[77.969752,30.383756],[77.969785,30.383757],[77.969812,30.38376],[77.970106,30.383852],[77.97014,30.383878],[77.970159,30.383913],[77.970382,30.383938],[77.970406,30.383958],[77.97086,30.384087],[77.970887,30.384187],[77.970928,30.384293],[77.970983,30.384377],[77.971101,30.384549],[77.971132,30.384607],[77.971161,30.384685],[77.97125,30.385004],[77.971405,30.385584],[77.971425,30.385706],[77.971425,30.385842],[77.971402,30.386358],[77.97139,30.386459],[77.971362,30.386538],[77.97133,30.386589],[77.971291,30.386633],[77.971236,30.386681],[77.97114,30.386739],[77.970951,30.386862]]}},{"type":"Feature","properties":{"k":"spur","name":"Kandholi link (south)","km":1.48},"geometry":{"type":"LineString","coordinates":[[77.969669,30.383778],[77.969697,30.383769],[77.969752,30.383756],[77.969785,30.383757],[77.969812,30.38376],[77.970106,30.383852],[77.97014,30.383878],[77.970159,30.383913],[77.970382,30.383938],[77.970406,30.383958],[77.97086,30.384087],[77.970839,30.384011],[77.970799,30.383864],[77.970778,30.383776],[77.970771,30.383719],[77.970776,30.383659],[77.970867,30.383354],[77.971047,30.382731],[77.971186,30.382226],[77.971243,30.381995],[77.971257,30.381886],[77.971262,30.381788],[77.971259,30.381694],[77.971222,30.381515],[77.971162,30.381351],[77.971141,30.381281],[77.971128,30.381211],[77.971128,30.381138],[77.971138,30.38108],[77.971216,30.380619],[77.971292,30.380323],[77.971297,30.380295],[77.971294,30.380266],[77.97105,30.379778],[77.971034,30.379751],[77.971009,30.379687],[77.971235,30.379363],[77.97133,30.379184],[77.971345,30.379124],[77.971348,30.379066],[77.971325,30.379017],[77.971294,30.37898],[77.971009,30.378796],[77.97097,30.378765],[77.970946,30.378738],[77.97093,30.378711],[77.970923,30.378678],[77.970925,30.378652],[77.970937,30.378619],[77.970953,30.37859],[77.970978,30.37857],[77.97101,30.378561],[77.971305,30.378511],[77.971368,30.37849],[77.971576,30.37837],[77.97161,30.378338],[77.971686,30.378169],[77.971698,30.378152],[77.971709,30.378142],[77.971904,30.378025],[77.971932,30.378014],[77.971959,30.378009],[77.972139,30.377986],[77.972169,30.377985],[77.972196,30.37799],[77.972361,30.378058],[77.972587,30.378157],[77.9726,30.378164],[77.972608,30.378174],[77.972684,30.378367],[77.972694,30.378378],[77.972707,30.378386],[77.972898,30.378426],[77.973072,30.378445],[77.973274,30.378455],[77.973377,30.378459],[77.973559,30.378467],[77.973809,30.378473],[77.97384,30.378478],[77.974257,30.378617],[77.974304,30.378623],[77.974346,30.378623],[77.97438,30.378617],[77.974406,30.37861],[77.97443,30.3786],[77.974453,30.378577],[77.974469,30.378549],[77.974479,30.378521],[77.974485,30.378487],[77.974492,30.378253],[77.974501,30.378102],[77.974525,30.377947],[77.974562,30.377789],[77.974632,30.377607],[77.974697,30.377508],[77.974718,30.377484],[77.974762,30.377432],[77.974937,30.377281],[77.975144,30.377141],[77.975687,30.376838],[77.975843,30.376709],[77.976115,30.376485],[77.976228,30.376406]]}}]}