{"type":"FeatureCollection","features":[{"type":"Feature","properties":{"k":"river","r":2,"name":"Suarna Nadi"},"geometry":{"type":"LineString","coordinates":[[77.952307,30.425154],[77.948432,30.422882],[77.944894,30.418684],[77.936212,30.412983],[77.92362,30.407947],[77.915289,30.406068],[77.913158,30.405351],[77.911889,30.404006],[77.907791,30.402288],[77.897056,30.399768],[77.890197,30.397694],[77.885241,30.395546],[77.876885,30.389559],[77.870367,30.386863],[77.861036,30.38138],[77.857813,30.376855],[77.854807,30.374642],[77.853195,30.372386],[77.852901,30.369983],[77.851212,30.368394],[77.849835,30.3671],[77.846204,30.36515],[77.84494,30.364471],[77.840439,30.362646],[77.837674,30.36036],[77.834953,30.357281],[77.832749,30.354268]]}},{"type":"Feature","properties":{"k":"river","r":2,"name":"Nun Nadi"},"geometry":{"type":"LineString","coordinates":[[78.006817,30.414506],[78.006982,30.414059],[78.007053,30.413764],[78.007005,30.413302],[78.006867,30.412317],[78.00708,30.4119],[78.007445,30.411738],[78.007727,30.411545],[78.007951,30.411433],[78.008293,30.41126],[78.008717,30.410935],[78.008941,30.410508],[78.009577,30.410427],[78.009918,30.410427],[78.010272,30.410366],[78.010555,30.410051],[78.010555,30.409817],[78.010425,30.409564],[78.010225,30.409116],[78.010083,30.408903],[78.010284,30.408608],[78.010543,30.408395],[78.010661,30.408324],[78.011014,30.408304],[78.011415,30.408466],[78.011532,30.408629],[78.011768,30.40871],[78.012133,30.40872],[78.01251,30.407979],[78.01273,30.407192],[78.013521,30.404477],[78.014443,30.401892],[78.020782,30.400301],[78.022058,30.398353],[78.026344,30.396698],[78.026976,30.396166],[78.027295,30.395898],[78.027411,30.39501],[78.026949,30.39386],[78.026142,30.393015],[78.026112,30.391055],[78.025767,30.38966],[78.024989,30.38951],[78.024203,30.38968],[78.022454,30.390057],[78.021186,30.389187],[78.019918,30.387621],[78.019832,30.386428],[78.020091,30.384365],[78.019327,30.383366],[78.016727,30.382489],[78.015604,30.381741],[78.014357,30.378424],[78.013394,30.376301],[78.009537,30.370269],[78.007249,30.368999],[78.003234,30.365423],[78.003218,30.361364],[77.999433,30.359318],[77.995646,30.360043],[77.991693,30.358812],[77.989042,30.352046]]}},{"type":"Feature","properties":{"k":"river","r":2,"name":"Tons"},"geometry":{"type":"LineString","coordinates":[[78.015793,30.357602],[78.015401,30.357572],[78.014776,30.35779],[78.014398,30.357935],[78.013834,30.358049],[78.013398,30.35822],[78.012954,30.358221],[78.012552,30.357577],[78.012381,30.357433],[78.011874,30.357086],[78.011351,30.356956],[78.010921,30.357271],[78.010511,30.357613],[78.010221,30.357889],[78.009842,30.358022],[78.009151,30.357649],[78.008546,30.357624],[78.007883,30.356828],[78.007418,30.356398],[78.007164,30.356227],[78.00711,30.355991],[78.00674,30.355725],[78.006388,30.355968],[78.006142,30.356359],[78.003359,30.355411],[78.002668,30.355162],[78.001515,30.353944],[78.001256,30.352825],[78.000535,30.35203],[77.997827,30.351433],[77.996244,30.35121],[77.995912,30.351154],[77.995373,30.351185],[77.995108,30.351441],[77.99467,30.351795],[77.994051,30.351934],[77.993072,30.351871],[77.992256,30.352052],[77.991621,30.35241],[77.989699,30.352375],[77.989042,30.352046]]}},{"type":"Feature","properties":{"k":"river","r":2,"name":"Tons Nadi"},"geometry":{"type":"LineString","coordinates":[[77.989042,30.352046],[77.987932,30.350881],[77.987318,30.35053],[77.986802,30.350271],[77.986081,30.350285],[77.985327,30.350273],[77.985022,30.350059],[77.984276,30.349789],[77.983129,30.349873],[77.981763,30.350254],[77.978606,30.350268],[77.975694,30.349762],[77.97353,30.348153],[77.972083,30.345934],[77.971698,30.344946],[77.971045,30.343875],[77.970516,30.34329],[77.969566,30.343047],[77.968907,30.342569],[77.968174,30.341593],[77.967551,30.341195],[77.96614,30.340797],[77.965314,30.340713],[77.964429,30.340736],[77.960793,30.340624],[77.958217,30.341247],[77.956192,30.342354],[77.954354,30.342233],[77.953091,30.341988],[77.951423,30.341635],[77.947768,30.340692],[77.94449,30.339748],[77.940882,30.339112],[77.936698,30.338531],[77.934363,30.338212],[77.930059,30.337285],[77.927485,30.337319],[77.924973,30.338825],[77.919899,30.339454],[77.918333,30.338926],[77.91638,30.338797],[77.915651,30.338936],[77.913827,30.339491],[77.91314,30.339491],[77.911853,30.339287],[77.911155,30.338686],[77.910876,30.338575],[77.909879,30.338445],[77.908548,30.338491],[77.908012,30.338695],[77.906874,30.338973],[77.905619,30.338806],[77.904911,30.338862],[77.904632,30.338945],[77.904364,30.339269],[77.903527,30.339584],[77.902604,30.339713],[77.900856,30.339815],[77.899096,30.339899],[77.896178,30.339889],[77.89312,30.339889],[77.890878,30.339963],[77.889574,30.339926],[77.889107,30.339866],[77.888174,30.339704],[77.887487,30.339547],[77.886114,30.339047],[77.883657,30.338019],[77.880658,30.336949],[77.879049,30.336713],[77.878126,30.33657],[77.876356,30.336454],[77.875015,30.336505],[77.873309,30.33669],[77.872059,30.336954],[77.870075,30.337519],[77.868315,30.338232],[77.867371,30.338686],[77.866105,30.33951],[77.864109,30.340473],[77.862714,30.341],[77.861298,30.341519],[77.859067,30.342426],[77.857313,30.342894],[77.855199,30.343623],[77.854033,30.344046],[77.85265,30.344416],[77.850773,30.345014],[77.850166,30.345168],[77.849808,30.345234],[77.848989,30.345387],[77.848005,30.345386],[77.84588,30.34692],[77.844307,30.347638],[77.843577,30.34797],[77.8423,30.34901],[77.842004,30.349282],[77.841231,30.349978],[77.840959,30.351104],[77.840122,30.351611],[77.838919,30.352545],[77.837276,30.353398],[77.834938,30.353861],[77.832749,30.354268],[77.830002,30.355231],[77.8285,30.356379],[77.827535,30.357471],[77.825711,30.359193],[77.822771,30.361693],[77.819874,30.363748],[77.818158,30.365118],[77.815347,30.367618],[77.81348,30.369043],[77.808995,30.371727],[77.807558,30.372635],[77.807193,30.373171],[77.807107,30.373727],[77.807064,30.374467],[77.807171,30.375504],[77.807322,30.376189],[77.807257,30.376689],[77.807193,30.377059],[77.806699,30.377522],[77.805862,30.378114],[77.805004,30.378706],[77.803867,30.379243],[77.802579,30.379873],[77.801034,30.38028],[77.798717,30.381261],[77.796614,30.382224],[77.795305,30.383575],[77.794891,30.384058],[77.794554,30.384649],[77.793245,30.386648],[77.790928,30.389109],[77.788989,30.391583],[77.78832,30.39229],[77.787666,30.39283],[77.786035,30.394033],[77.783868,30.396124],[77.778881,30.401042],[77.775629,30.403389],[77.774972,30.403859],[77.774309,30.404221],[77.773848,30.40448],[77.765028,30.408145],[77.763516,30.408839],[77.76152,30.409422],[77.756885,30.41018],[77.75328,30.4108],[77.752,30.411055],[77.751285,30.411337],[77.750351,30.411846],[77.747798,30.413474],[77.744762,30.415195],[77.741339,30.416685],[77.737713,30.418443],[77.731898,30.420987],[77.729076,30.42244],[77.727928,30.423087],[77.726598,30.424114],[77.725546,30.42527],[77.724817,30.426242],[77.723808,30.4275],[77.723154,30.427944],[77.721502,30.428962],[77.720279,30.429387],[77.718852,30.429739],[77.717822,30.429757],[77.715697,30.429702],[77.712489,30.429526],[77.708831,30.429156],[77.704647,30.428703],[77.697507,30.427856],[77.696949,30.427579],[77.696739,30.427273],[77.696605,30.426885],[77.696561,30.426787],[77.696466,30.426695],[77.695726,30.426538],[77.695119,30.426552],[77.693719,30.426866],[77.692426,30.427153],[77.692196,30.42722],[77.69205,30.427304],[77.691944,30.427394],[77.691568,30.427953],[77.691219,30.428832],[77.690983,30.429133],[77.690785,30.429297],[77.690487,30.429415],[77.688178,30.429915],[77.687663,30.430058],[77.68696,30.430405],[77.686678,30.430678],[77.686536,30.430946],[77.6863,30.431603],[77.686139,30.431862],[77.68571,30.432209],[77.685163,30.432482],[77.684616,30.432722],[77.683688,30.43309],[77.68284,30.433342],[77.682293,30.433513],[77.681563,30.433726],[77.681167,30.433809],[77.6807,30.433832],[77.679699,30.433872],[77.679335,30.433814],[77.679085,30.433707],[77.678651,30.433467],[77.678195,30.433236],[77.677822,30.43312],[77.677508,30.433092],[77.676752,30.433106],[77.674434,30.432986],[77.6732,30.433032],[77.672696,30.433088],[77.672364,30.433138],[77.672031,30.433254],[77.67128,30.433726],[77.670127,30.434392],[77.669445,30.434665],[77.668544,30.43497],[77.667804,30.43515],[77.666693,30.435257],[77.665512,30.43525],[77.664065,30.435271],[77.662193,30.435113],[77.660691,30.435007],[77.658969,30.434896],[77.657842,30.434873],[77.657381,30.434799],[77.656935,30.434632],[77.656066,30.434327],[77.655203,30.43417],[77.654661,30.434138],[77.654076,30.434239],[77.653668,30.434429],[77.653449,30.434734],[77.653121,30.435289],[77.652856,30.435877]]}},{"type":"Feature","properties":{"k":"stream","r":0,"name":""},"geometry":{"type":"LineString","coordinates":[[77.972078,30.422389],[77.97197,30.42166],[77.97194,30.421402],[77.971915,30.421165],[77.971878,30.421025],[77.971774,30.420838],[77.971303,30.420529],[77.971203,30.420123],[77.971195,30.419969],[77.97122,30.419764],[77.971241,30.419549],[77.971232,30.419265],[77.971245,30.419117],[77.971324,30.418672],[77.971586,30.4186],[77.97219,30.418417],[77.972444,30.418403],[77.972598,30.418187],[77.972802,30.417954],[77.972948,30.41776],[77.973107,30.417555],[77.973344,30.417383],[77.973435,30.417264],[77.973435,30.416966],[77.973527,30.416704],[77.973423,30.416449],[77.973286,30.416215],[77.973244,30.416079],[77.973236,30.415957],[77.973281,30.415824],[77.973702,30.414897],[77.973927,30.414682],[77.97441,30.41451],[77.974993,30.414308],[77.975435,30.414165],[77.975834,30.413899],[77.976009,30.413662],[77.976234,30.413425],[77.976876,30.413446],[77.977675,30.413339],[77.978009,30.413138],[77.978608,30.412613],[77.97875,30.41239],[77.978941,30.412125],[77.979158,30.411758],[77.979366,30.411564],[77.979666,30.411485],[77.980216,30.411349],[77.980699,30.411262],[77.981082,30.411162],[77.981515,30.410932],[77.981965,30.410551],[77.982282,30.410293],[77.982548,30.410092],[77.983165,30.409783],[77.983273,30.409531],[77.983498,30.40915],[77.983764,30.408698],[77.984031,30.408274],[77.984414,30.407908],[77.984897,30.407628],[77.985497,30.407247],[77.98558,30.406744],[77.985922,30.406327],[77.986346,30.405465],[77.986505,30.405257],[77.986913,30.404969],[77.987054,30.404833],[77.987421,30.404718],[77.987846,30.404768],[77.988046,30.404876],[77.988354,30.404984],[77.988646,30.405056],[77.988895,30.404948],[77.988829,30.404797],[77.988829,30.404409],[77.988929,30.404064],[77.988887,30.403813],[77.989154,30.403482],[77.989687,30.403253],[77.99052,30.402663],[77.990653,30.402333],[77.99047,30.402132],[77.990286,30.402146],[77.989104,30.402132],[77.988204,30.402002],[77.988104,30.401658],[77.988187,30.401241],[77.988521,30.400795],[77.988937,30.400393],[77.98897,30.400178],[77.988654,30.399856],[77.988553,30.399713],[77.988324,30.399622],[77.988253,30.399673],[77.9882,30.39983],[77.988124,30.400049],[77.987994,30.400242],[77.98787,30.400272],[77.987788,30.400267],[77.987752,30.40017],[77.987564,30.399942],[77.987452,30.399856],[77.987116,30.399779],[77.98691,30.399794],[77.986786,30.399866],[77.986633,30.399977],[77.98608,30.400094],[77.985485,30.399988],[77.985073,30.399866],[77.985031,30.39981],[77.985008,30.399637],[77.985125,30.399581],[77.985332,30.399459],[77.985502,30.399388],[77.985673,30.399281],[77.985785,30.399027],[77.985573,30.398921],[77.985155,30.398814],[77.984837,30.398844],[77.984725,30.398718],[77.984678,30.398631],[77.984737,30.398484],[77.984908,30.398382],[77.985096,30.39823],[77.98532,30.398108],[77.985726,30.397905],[77.986021,30.397707],[77.98638,30.397432],[77.98661,30.397122],[77.986663,30.396889],[77.986745,30.396345],[77.98671,30.396081],[77.986563,30.395746],[77.986309,30.395552],[77.986109,30.395375],[77.986144,30.394846],[77.986203,30.394729],[77.986433,30.394531],[77.986669,30.394404],[77.986904,30.394176],[77.987034,30.393972],[77.987044,30.393899],[77.987116,30.393383],[77.98701,30.392987],[77.98691,30.392743],[77.986763,30.392342],[77.986557,30.391813],[77.986339,30.391463],[77.985921,30.39065],[77.985903,30.390487],[77.986062,30.390142],[77.986498,30.389461],[77.986604,30.389059],[77.986621,30.388958],[77.986545,30.388902],[77.986368,30.388811],[77.985956,30.388663],[77.984919,30.388496],[77.984772,30.388307],[77.984584,30.387967],[77.984601,30.387662],[77.984584,30.387012],[77.984537,30.38687],[77.984336,30.386717],[77.983759,30.386407],[77.983476,30.386153],[77.982887,30.385742],[77.982563,30.385538],[77.982198,30.385361],[77.980926,30.38504],[77.980419,30.38469],[77.980372,30.384309],[77.980484,30.38373],[77.980467,30.38342],[77.980472,30.383267],[77.980325,30.381778],[77.980225,30.380859],[77.980225,30.380772],[77.980178,30.379924],[77.980449,30.37908],[77.981132,30.378288],[77.98231,30.37782],[77.982852,30.377251],[77.982958,30.376499],[77.983441,30.375239],[77.984678,30.375218],[77.985173,30.37469],[77.985193,30.374339],[77.985208,30.37407],[77.985255,30.373318],[77.985502,30.372749],[77.986103,30.372048],[77.986374,30.371336],[77.986864,30.369724],[77.98704,30.369237],[77.987447,30.368749],[77.988188,30.367014],[77.988018,30.366542],[77.987824,30.366311],[77.987459,30.366154],[77.986924,30.365934],[77.986244,30.365724],[77.985636,30.365525],[77.984919,30.365074],[77.984615,30.364676],[77.984251,30.36412],[77.982707,30.362589],[77.982173,30.361886],[77.981674,30.36153],[77.981346,30.36132],[77.980994,30.361068],[77.980739,30.360775],[77.979122,30.360062],[77.97843,30.359579],[77.977822,30.359254],[77.976789,30.358866],[77.976169,30.358499],[77.974577,30.357304],[77.974346,30.355018],[77.974006,30.354494],[77.973119,30.354001],[77.972232,30.353613],[77.971563,30.353204],[77.971017,30.352774],[77.969741,30.351998],[77.96868,30.351163],[77.968161,30.34968],[77.967176,30.348484],[77.966143,30.347981],[77.965596,30.347866],[77.964466,30.347247],[77.964418,30.346838],[77.964503,30.346324],[77.964697,30.344677],[77.964758,30.343775],[77.964734,30.342978],[77.9646,30.341363],[77.964429,30.340736]]}},{"type":"Feature","properties":{"k":"stream","r":0,"name":""},"geometry":{"type":"LineString","coordinates":[[77.980944,30.393231],[77.980929,30.393137],[77.98092,30.392925],[77.980868,30.392786],[77.980856,30.392503],[77.980856,30.392283],[77.980813,30.392107],[77.980783,30.391528],[77.980774,30.391357],[77.980734,30.391169],[77.980686,30.390954],[77.980652,30.39082],[77.980756,30.390658],[77.980862,30.390556],[77.981014,30.390495],[77.981096,30.390461],[77.981221,30.390443],[77.981391,30.390241],[77.981659,30.389934],[77.981439,30.389284],[77.98119,30.388802],[77.981141,30.38854],[77.981494,30.388283],[77.981743,30.388016],[77.981785,30.387717],[77.981773,30.387492],[77.981937,30.387183],[77.982168,30.387156],[77.982346,30.386962],[77.982444,30.386727],[77.982435,30.386496],[77.982887,30.385742]]}},{"type":"Feature","properties":{"k":"stream","r":0,"name":"Bared Khala"},"geometry":{"type":"LineString","coordinates":[[77.990309,30.438216],[77.990139,30.438059],[77.989917,30.437894],[77.98979,30.437802],[77.98965,30.437729],[77.989209,30.437399],[77.988754,30.436885],[77.988647,30.436744],[77.988592,30.436634],[77.988541,30.436521],[77.988535,30.436335],[77.988589,30.436032],[77.988644,30.435882],[77.98872,30.43572],[77.98876,30.435568],[77.988766,30.435369],[77.988744,30.43512],[77.988709,30.435029],[77.988671,30.434934],[77.988586,30.434745],[77.988519,30.434604],[77.988425,30.434413],[77.988374,30.434227],[77.988361,30.433994],[77.988316,30.433475],[77.988261,30.433339],[77.988161,30.433216],[77.988039,30.433056],[77.987942,30.432852],[77.987882,30.432511],[77.987809,30.432168],[77.987869,30.431992],[77.98796,30.431798],[77.988,30.431625],[77.987994,30.431418],[77.987888,30.430811],[77.987957,30.430669],[77.987945,30.43046],[77.98793,30.430276],[77.987869,30.430025],[77.987781,30.429561],[77.98769,30.42938],[77.987556,30.429171],[77.987471,30.429001],[77.987456,30.428817],[77.987441,30.428691],[77.987171,30.428351],[77.987165,30.428196],[77.98721,30.427848],[77.987265,30.427638],[77.987325,30.427481],[77.987624,30.426844],[77.987715,30.426421],[77.987809,30.426081],[77.987908,30.425795],[77.988054,30.425543],[77.989411,30.423901],[77.990591,30.423032],[77.993102,30.42181],[77.993853,30.421533],[77.995634,30.421625],[77.996857,30.422014],[77.998273,30.421533],[77.999389,30.421459],[78.000569,30.421792],[78.002007,30.421126],[78.002887,30.419479],[78.003272,30.418639],[78.003431,30.418278],[78.003454,30.418177],[78.003557,30.41803],[78.003675,30.417885],[78.003799,30.417755],[78.003964,30.417641],[78.004403,30.417047],[78.004429,30.416917],[78.004467,30.416778],[78.004506,30.416623],[78.004662,30.41614],[78.00488,30.415891],[78.005015,30.415764],[78.00518,30.41566],[78.005548,30.415482],[78.005707,30.415416],[78.006067,30.414992],[78.006131,30.414888],[78.006261,30.414751],[78.006423,30.414698],[78.006817,30.414506]]}},{"type":"Feature","properties":{"k":"stream","r":0,"name":""},"geometry":{"type":"LineString","coordinates":[[78.000611,30.385638],[78.00068,30.385479],[78.000852,30.385056],[78.000676,30.384737],[78.000611,30.384685],[78.000388,30.384641],[78.000254,30.384589],[78.000207,30.3845],[78.00019,30.384337],[78.000349,30.384092],[78.000474,30.383948],[78.000551,30.383851],[78.00059,30.383596],[78.000474,30.383288],[78.000031,30.382858],[77.999911,30.382647],[77.999657,30.382287],[77.998622,30.381361],[77.99851,30.381197],[77.998347,30.381012],[77.998179,30.380827],[77.997977,30.380619],[77.997612,30.380564],[77.997466,30.380541],[77.997316,30.380471],[77.997096,30.380204],[77.997002,30.379841],[77.996873,30.379444],[77.997084,30.379029],[77.996821,30.378725],[77.996512,30.378418],[77.996241,30.378173],[77.996156,30.377787],[77.996229,30.377565],[77.996439,30.377394],[77.996508,30.377346],[77.99668,30.377253],[77.996753,30.377068],[77.996448,30.377064],[77.995679,30.377354],[77.995558,30.377297],[77.995308,30.377077],[77.995096,30.377061],[77.995011,30.377092],[77.994889,30.377297],[77.994743,30.377433],[77.994415,30.377297],[77.994348,30.377166],[77.994209,30.376846],[77.993789,30.376809],[77.993546,30.376799],[77.99334,30.376694],[77.993018,30.37662],[77.992866,30.376657],[77.992817,30.376888],[77.99275,30.377092],[77.992611,30.377061],[77.992434,30.376914],[77.992046,30.376788],[77.991827,30.376626],[77.991529,30.376683],[77.991225,30.376736],[77.990909,30.37682],[77.990399,30.376793],[77.990071,30.376652],[77.989463,30.376395],[77.988907,30.376351],[77.988039,30.375802],[77.98724,30.375735],[77.986879,30.375483],[77.98663,30.375068],[77.986389,30.374861],[77.986097,30.374705],[77.985839,30.374609],[77.985193,30.374339]]}},{"type":"Feature","properties":{"k":"stream","r":0,"name":"Sorna Khala"},"geometry":{"type":"LineString","coordinates":[[77.982888,30.463027],[77.984347,30.462214],[77.985721,30.461825],[77.986729,30.461159],[77.987266,30.460549],[77.987523,30.459439],[77.987459,30.458699],[77.98718,30.457608],[77.987207,30.456692],[77.986364,30.45598],[77.98557,30.455268],[77.984648,30.454223],[77.98188,30.450912],[77.980549,30.45069],[77.979112,30.450246],[77.976193,30.449876],[77.975764,30.449395],[77.975378,30.449053],[77.973861,30.448585],[77.97352,30.447357],[77.97342,30.447106],[77.973236,30.446948],[77.973478,30.446653],[77.973828,30.446459],[77.97392,30.446194],[77.97382,30.445892],[77.973528,30.445526],[77.97297,30.444822],[77.972745,30.444679],[77.972362,30.444657],[77.97217,30.444628],[77.971737,30.444363],[77.971296,30.444047],[77.970854,30.44381],[77.970613,30.443652],[77.970354,30.443508],[77.97023,30.443214],[77.970063,30.44302],[77.969613,30.44251],[77.969547,30.442086],[77.96968,30.441662],[77.969663,30.441368],[77.969497,30.441081],[77.969305,30.44093],[77.968872,30.440657],[77.968505,30.440377],[77.968155,30.440032],[77.967947,30.439925],[77.967681,30.43986],[77.967389,30.43968],[77.967356,30.439609],[77.967306,30.439336],[77.967264,30.439048],[77.967189,30.438804],[77.967023,30.438689],[77.966798,30.438661],[77.966606,30.438617],[77.96604,30.438244],[77.965881,30.438064],[77.965582,30.437605],[77.965315,30.437375],[77.965298,30.437117],[77.965248,30.436872],[77.96509,30.436104],[77.964932,30.435716],[77.964549,30.435501],[77.964191,30.435364],[77.963816,30.435249],[77.963482,30.435142],[77.963058,30.43494],[77.962858,30.434725],[77.962774,30.434524],[77.962808,30.434222],[77.962616,30.433396],[77.962616,30.433102],[77.962608,30.432599],[77.962633,30.432147],[77.962675,30.431227],[77.962591,30.430983],[77.962416,30.430674],[77.962391,30.430466],[77.962566,30.430021],[77.962383,30.429338],[77.962191,30.428972],[77.962133,30.428642],[77.962083,30.428268],[77.961792,30.427837],[77.961542,30.427615],[77.961325,30.427263],[77.961092,30.42658],[77.960734,30.42602],[77.9607,30.425769],[77.960684,30.425539],[77.960159,30.424878],[77.959709,30.424656],[77.959318,30.42449],[77.958701,30.424404],[77.958276,30.424397],[77.957202,30.424749],[77.956686,30.425065],[77.955819,30.425266],[77.952307,30.425154]]}},{"type":"Feature","properties":{"k":"stream","r":0,"name":""},"geometry":{"type":"LineString","coordinates":[[77.990022,30.410035],[77.990296,30.409983],[77.990514,30.409941],[77.990618,30.410046],[77.990794,30.410245],[77.991116,30.410025],[77.991377,30.409742],[77.99142,30.409606],[77.991383,30.409343],[77.991328,30.409212],[77.991371,30.409123],[77.991614,30.409181],[77.992027,30.409197],[77.992277,30.408861],[77.992355,30.40861],[77.992532,30.408301],[77.992532,30.408049],[77.992434,30.407861],[77.992277,30.407735],[77.991626,30.407745],[77.991432,30.407714],[77.991298,30.407651],[77.991298,30.407499],[77.991341,30.407321],[77.991468,30.407216],[77.991657,30.407053],[77.992027,30.40697],[77.992301,30.406844],[77.992507,30.406655],[77.992708,30.406461],[77.993006,30.406398],[77.993249,30.406472],[77.993644,30.406529],[77.993814,30.406524],[77.994002,30.40644],[77.993899,30.405937],[77.994421,30.404858],[77.994525,30.404501],[77.994415,30.403977],[77.994379,30.403804],[77.994415,30.403747],[77.994488,30.403689],[77.99427,30.403065],[77.994063,30.403128],[77.993935,30.403118],[77.99368,30.402683],[77.993686,30.402075],[77.993692,30.401797],[77.993662,30.401598],[77.993565,30.401362],[77.993358,30.401247],[77.993085,30.401184],[77.992981,30.40121],[77.992884,30.401137],[77.992726,30.400786],[77.99241,30.400487],[77.992313,30.400303],[77.992119,30.40013],[77.991705,30.399811],[77.991559,30.399632],[77.991517,30.399517],[77.991584,30.399318],[77.991596,30.39914],[77.991395,30.398988],[77.991219,30.398962],[77.990976,30.399114],[77.990842,30.399287],[77.99069,30.399297],[77.990472,30.399145],[77.990296,30.398962],[77.98925,30.398113],[77.988764,30.398045],[77.988612,30.398008],[77.988418,30.397756],[77.988357,30.39762],[77.988382,30.397389],[77.988582,30.397248],[77.988655,30.397049],[77.988394,30.396887],[77.988196,30.396813],[77.987921,30.396613],[77.987998,30.396376],[77.988127,30.39619],[77.988316,30.395919],[77.988572,30.39555],[77.988523,30.395382],[77.988325,30.395286],[77.98804,30.395148],[77.987749,30.394982],[77.987431,30.394745],[77.987251,30.39453],[77.987044,30.393899]]}},{"type":"Feature","properties":{"k":"stream","r":0,"name":""},"geometry":{"type":"LineString","coordinates":[[77.96995,30.398537],[77.969855,30.398033],[77.970302,30.397411],[77.970405,30.39707],[77.970362,30.39658],[77.969786,30.396025],[77.969769,30.394861],[77.969812,30.394097],[77.969829,30.393719],[77.969709,30.393319],[77.969383,30.392593],[77.969391,30.392163],[77.969554,30.391674],[77.970044,30.391147],[77.969881,30.390791],[77.969898,30.390006],[77.970213,30.38961],[77.970493,30.389044],[77.970517,30.388761],[77.970602,30.388583],[77.970979,30.388226],[77.971443,30.38758],[77.971768,30.387483],[77.971864,30.387407],[77.971872,30.387231],[77.97189,30.386968],[77.971953,30.38679],[77.972094,30.38661],[77.972158,30.386439],[77.972192,30.386246],[77.972236,30.386115],[77.972315,30.386053],[77.972448,30.386011],[77.972654,30.386007],[77.972816,30.386002],[77.972972,30.385941],[77.973042,30.385873],[77.973031,30.385797],[77.972943,30.385668],[77.972945,30.385546],[77.973117,30.385196],[77.973192,30.384859],[77.973161,30.384646],[77.973156,30.384576],[77.973215,30.38448],[77.973224,30.38441],[77.973167,30.384324],[77.973059,30.384249],[77.97292,30.384212],[77.972791,30.384178],[77.972725,30.384082],[77.972685,30.383929],[77.972571,30.383729],[77.972474,30.38331],[77.972461,30.382985],[77.972729,30.382744],[77.973021,30.382544],[77.97347,30.38202],[77.973543,30.380982],[77.973349,30.380458],[77.9733,30.379431],[77.973312,30.378864],[77.973434,30.37833],[77.973592,30.377806],[77.973592,30.377313],[77.973543,30.37638],[77.973434,30.375876],[77.973069,30.375247],[77.97251,30.374775],[77.971915,30.374545],[77.971295,30.374063],[77.971489,30.373717],[77.971696,30.373528],[77.972072,30.373297],[77.972133,30.372941],[77.971927,30.372249],[77.972158,30.371882],[77.972449,30.371567],[77.972923,30.371452],[77.973154,30.371074],[77.972923,30.370739],[77.972218,30.370802],[77.971757,30.370718],[77.971635,30.370288],[77.971271,30.369648],[77.970821,30.369344],[77.970444,30.369418],[77.969788,30.369753],[77.969618,30.370015],[77.96963,30.370613],[77.969793,30.37123],[77.968821,30.370852],[77.968067,30.370601],[77.967071,30.370286],[77.966755,30.369447],[77.966584,30.36886],[77.967338,30.36777],[77.968067,30.367078],[77.96865,30.366092],[77.968578,30.365295],[77.967678,30.364708],[77.966633,30.364666],[77.966123,30.364205],[77.966026,30.363303],[77.966366,30.36217],[77.966366,30.361394],[77.966244,30.36087],[77.966001,30.360451],[77.965321,30.35978],[77.964689,30.359318],[77.964105,30.358836],[77.963668,30.358039],[77.963644,30.357032],[77.963571,30.356026],[77.962525,30.354432],[77.959437,30.350707],[77.957993,30.349669],[77.956619,30.34866],[77.955175,30.347948],[77.9537,30.347261],[77.952705,30.34658],[77.951866,30.344725],[77.951497,30.342194],[77.951423,30.341635]]}},{"type":"Feature","properties":{"k":"river","r":2,"name":""},"geometry":{"type":"LineString","coordinates":[[77.939262,30.347465],[77.938813,30.345552],[77.938813,30.344958],[77.938424,30.343393],[77.93742,30.340342],[77.936698,30.338531]]}},{"type":"Feature","properties":{"k":"stream","r":0,"name":""},"geometry":{"type":"LineString","coordinates":[[78.030989,30.383995],[78.030801,30.384217],[78.030678,30.384393],[78.030468,30.384518],[78.030356,30.384713],[78.029986,30.384902],[78.029723,30.384995],[78.029519,30.385171],[78.02932,30.385101],[78.029052,30.385296],[78.02865,30.385448],[78.028188,30.385943],[78.027931,30.386161],[78.027829,30.386138],[78.027223,30.386055],[78.026794,30.386124],[78.026499,30.386476],[78.026257,30.386781],[78.025855,30.386813],[78.025667,30.386948],[78.025222,30.387147],[78.025142,30.387392],[78.024975,30.387882],[78.024557,30.389016],[78.024203,30.38968]]}},{"type":"Feature","properties":{"k":"stream","r":0,"name":""},"geometry":{"type":"LineString","coordinates":[[78.020972,30.406105],[78.021087,30.405862],[78.021345,30.405737],[78.021645,30.405446],[78.021828,30.405147],[78.02186,30.404877],[78.021737,30.404409],[78.021833,30.404192],[78.021903,30.403845],[78.022225,30.403685],[78.02256,30.4036],[78.022831,30.403572],[78.022954,30.40363],[78.02322,30.403435],[78.023408,30.403271],[78.023429,30.40313],[78.023611,30.403012],[78.023906,30.40301],[78.02415,30.402931],[78.024255,30.402813],[78.024322,30.402649],[78.024301,30.402473],[78.024381,30.40238],[78.024601,30.402283],[78.024979,30.402246],[78.025135,30.402171],[78.025154,30.402075],[78.024891,30.401892],[78.024505,30.401573],[78.024167,30.401298],[78.024038,30.40118],[78.023904,30.401004]]}},{"type":"Feature","properties":{"k":"stream","r":0,"name":""},"geometry":{"type":"LineString","coordinates":[[78.023904,30.401004],[78.023834,30.4009],[78.023743,30.400716],[78.023784,30.400619],[78.023948,30.400544],[78.024282,30.400483],[78.024527,30.400422],[78.024774,30.400371],[78.024887,30.400246],[78.02488,30.400054],[78.024695,30.399764],[78.024617,30.399511],[78.024556,30.399182],[78.024557,30.398848],[78.024671,30.398481],[78.0251,30.398244],[78.025591,30.398024],[78.025922,30.397752],[78.026387,30.39741],[78.02667,30.397169]]}},{"type":"Feature","properties":{"k":"water","r":2,"name":""},"geometry":{"type":"Polygon","coordinates":[[[77.880755,30.338195],[77.883346,30.336037],[77.884773,30.336848],[77.885883,30.3375],[77.886168,30.337718],[77.886811,30.338065],[77.887144,30.338195],[77.887514,30.338255],[77.887847,30.338352],[77.888362,30.338607],[77.889113,30.338584],[77.889403,30.338639],[77.889655,30.338778],[77.890046,30.339186],[77.890942,30.339662],[77.891098,30.339686],[77.891425,30.339676],[77.892085,30.339588],[77.89246,30.339602],[77.893096,30.339628],[77.895604,30.339445],[77.895773,30.339345],[77.895743,30.339209],[77.89643,30.339098],[77.897326,30.339149],[77.898136,30.339255],[77.899396,30.339236],[77.899584,30.339199],[77.899793,30.339093],[77.900239,30.33876],[77.900958,30.338343],[77.901826,30.338014],[77.902379,30.337908],[77.902722,30.337885],[77.903227,30.337894],[77.903559,30.337954],[77.904026,30.338176],[77.904643,30.338334],[77.906166,30.33825],[77.906537,30.33832],[77.909997,30.338121],[77.911992,30.338297],[77.91226,30.338426],[77.91248,30.338454],[77.912588,30.338426],[77.912942,30.338343],[77.913628,30.338352],[77.914079,30.338556],[77.914368,30.338561],[77.914508,30.338551],[77.914916,30.338468],[77.915275,30.338422],[77.915704,30.338394],[77.917056,30.338584],[77.917104,30.338588],[77.91756,30.338602],[77.917898,30.338598],[77.918826,30.338463],[77.919642,30.338463],[77.919685,30.338454],[77.922185,30.33813],[77.923027,30.338051],[77.924325,30.337954],[77.926208,30.3376],[77.926251,30.337584],[77.926288,30.33756],[77.92639,30.337412],[77.926385,30.337167],[77.926406,30.337074],[77.926428,30.337],[77.926465,30.336885],[77.926492,30.336843],[77.926567,30.336769],[77.926615,30.336732],[77.926685,30.33669],[77.926728,30.336672],[77.927045,30.336588],[77.927141,30.336565],[77.927184,30.336561],[77.927436,30.336542],[77.927495,30.336537],[77.92771,30.336537],[77.927978,30.336551],[77.929738,30.336815],[77.931084,30.336885],[77.933235,30.337241],[77.933932,30.337162],[77.934764,30.337014],[77.935252,30.33701],[77.936497,30.337371],[77.936958,30.337899],[77.937494,30.338148],[77.938546,30.338028],[77.938986,30.338019],[77.939673,30.338112],[77.940381,30.338278],[77.941035,30.338389],[77.941797,30.338491],[77.942559,30.338519],[77.943149,30.338602],[77.943481,30.338695],[77.944018,30.338973],[77.944189,30.339],[77.944973,30.339019],[77.945842,30.339195],[77.946088,30.339306],[77.946625,30.339454],[77.94697,30.339741],[77.94743,30.340001],[77.947738,30.340257],[77.949321,30.340639],[77.952057,30.341162],[77.954055,30.341803],[77.955017,30.341977],[77.955425,30.342033],[77.955886,30.342024],[77.956442,30.34194],[77.956645,30.34188],[77.957048,30.341663],[77.957477,30.341343],[77.958899,30.340565],[77.959295,30.340394],[77.960207,30.340158],[77.961908,30.339829],[77.962466,30.339602],[77.962772,30.33951],[77.96333,30.339412],[77.963818,30.339375],[77.96569,30.339616],[77.966076,30.339584],[77.966312,30.339602],[77.966731,30.33969],[77.967203,30.339741],[77.96849,30.34013],[77.968737,30.34026],[77.969166,30.340621],[77.969552,30.341028],[77.969606,30.341139],[77.970003,30.3415],[77.970164,30.341704],[77.970411,30.341787],[77.970614,30.341945],[77.970904,30.342056],[77.97128,30.342297],[77.971333,30.342352],[77.972546,30.34413],[77.972771,30.345186],[77.972825,30.345852],[77.972964,30.346139],[77.973425,30.346769],[77.973501,30.347019],[77.973576,30.347519],[77.973758,30.347973],[77.973983,30.348213],[77.974885,30.349],[77.974949,30.349037],[77.975035,30.349083],[77.975389,30.349195],[77.975614,30.349213],[77.975957,30.349306],[77.976505,30.349361],[77.977256,30.349324],[77.978543,30.349167],[77.978951,30.349176],[77.979037,30.349185],[77.980335,30.34963],[77.980581,30.349685],[77.981161,30.349741],[77.981601,30.349759],[77.981869,30.349769],[77.98218,30.349759],[77.98292,30.349704],[77.983468,30.349722],[77.98453,30.349556],[77.984637,30.349546],[77.98586,30.349491],[77.986246,30.349546],[77.986772,30.349676],[77.987019,30.349769],[77.988049,30.350685],[77.988864,30.351611],[77.988929,30.351667],[77.989197,30.351843],[77.989422,30.351954],[77.988692,30.352463],[77.98851,30.352176],[77.988285,30.351917],[77.988049,30.351667],[77.987684,30.351324],[77.98762,30.351268],[77.987384,30.351093],[77.987115,30.350954],[77.986922,30.35087],[77.986611,30.350759],[77.986418,30.350704],[77.986278,30.350685],[77.98557,30.350611],[77.985195,30.350593],[77.983854,30.350574],[77.982631,30.350611],[77.980571,30.350833],[77.979112,30.350796],[77.978919,30.350787],[77.977846,30.350722],[77.977009,30.350602],[77.976365,30.350435],[77.975829,30.35025],[77.975678,30.350176],[77.974638,30.349565],[77.973779,30.349185],[77.973619,30.349102],[77.973211,30.348861],[77.972621,30.348361],[77.972406,30.348065],[77.97231,30.347852],[77.972031,30.346797],[77.971709,30.346186],[77.970958,30.345389],[77.970196,30.344713],[77.969992,30.344584],[77.969713,30.344232],[77.969627,30.344075],[77.969574,30.343769],[77.969617,30.34338],[77.969617,30.343306],[77.969595,30.343223],[77.969424,30.343019],[77.967809,30.341852],[77.966967,30.341463],[77.966355,30.341315],[77.965566,30.341264],[77.964891,30.34125],[77.963254,30.34132],[77.962047,30.341167],[77.960889,30.341297],[77.959494,30.341306],[77.958727,30.341505],[77.957488,30.342209],[77.957107,30.342491],[77.956941,30.342579],[77.956726,30.342658],[77.956533,30.342681],[77.956281,30.342681],[77.955052,30.342537],[77.95472,30.342473],[77.953979,30.342477],[77.953475,30.342412],[77.952821,30.342274],[77.95104,30.342098],[77.950305,30.341922],[77.949527,30.341829],[77.948797,30.341565],[77.948186,30.341149],[77.947982,30.341056],[77.946389,30.340903],[77.946206,30.340857],[77.94553,30.340473],[77.942591,30.339727],[77.94199,30.339598],[77.94133,30.339588],[77.939694,30.339649],[77.938036,30.339579],[77.936566,30.339436],[77.936389,30.339385],[77.935166,30.339204],[77.931406,30.338537],[77.930011,30.338338],[77.927774,30.338227],[77.927334,30.338283],[77.926438,30.338639],[77.926084,30.338889],[77.925489,30.339551],[77.924545,30.339838],[77.924143,30.33988],[77.923703,30.33988],[77.921584,30.33975],[77.921267,30.339774],[77.920366,30.340051],[77.919239,30.340223],[77.917743,30.340473],[77.916943,30.340547],[77.915801,30.34075],[77.915173,30.340718],[77.914664,30.340556],[77.914454,30.340533],[77.91387,30.340612],[77.913494,30.340736],[77.911777,30.340825],[77.910882,30.340547],[77.910635,30.340533],[77.909846,30.340644],[77.908956,30.340607],[77.907631,30.340843],[77.906601,30.340917],[77.906257,30.340848],[77.905818,30.340672],[77.905437,30.340449],[77.904868,30.339894],[77.904477,30.339695],[77.90408,30.339621],[77.903538,30.339764],[77.903103,30.339996],[77.902127,30.340676],[77.901944,30.340769],[77.901714,30.340811],[77.901252,30.340764],[77.900121,30.340468],[77.899622,30.340449],[77.899112,30.340528],[77.898324,30.340718],[77.897299,30.340801],[77.895362,30.341264],[77.894644,30.341287],[77.894236,30.34101],[77.894118,30.340579],[77.893748,30.34013],[77.893286,30.340107],[77.892482,30.340144],[77.891715,30.340283],[77.891017,30.340426],[77.890481,30.340621],[77.890019,30.340811],[77.889354,30.340973],[77.888705,30.340973],[77.888061,30.340899],[77.887681,30.340718],[77.88635,30.340653],[77.885653,30.340528],[77.885063,30.340181],[77.884784,30.340102],[77.884242,30.339537],[77.883872,30.339616],[77.882702,30.339199],[77.882262,30.339112],[77.881452,30.338862],[77.880755,30.338195]]]}},{"type":"Feature","properties":{"k":"river","r":2,"name":"Tons"},"geometry":{"type":"LineString","coordinates":[[78.058007,30.374944],[78.05777,30.374304],[78.057265,30.373888],[78.05702,30.373801],[78.056588,30.372949],[78.056126,30.372166],[78.055505,30.371585],[78.055077,30.371366],[78.054659,30.371287],[78.054323,30.371322],[78.053793,30.37141],[78.053294,30.371414],[78.053106,30.37137],[78.052372,30.37126],[78.052143,30.371278],[78.051888,30.371353],[78.051389,30.371871],[78.051186,30.372042],[78.05059,30.372491],[78.05034,30.372601],[78.050141,30.372583],[78.049693,30.372372],[78.049082,30.372275],[78.048481,30.372223],[78.048175,30.372135],[78.047717,30.37166],[78.047136,30.3713],[78.046555,30.370966],[78.046046,30.370412],[78.045394,30.36999],[78.044905,30.369867],[78.044467,30.36941],[78.044233,30.368716],[78.043265,30.368162],[78.042368,30.368188],[78.041543,30.368443],[78.040993,30.36868],[78.039579,30.369103],[78.038905,30.369146],[78.038171,30.368918],[78.037142,30.368531],[78.036745,30.368021],[78.036775,30.367186],[78.037407,30.366351],[78.037855,30.365885],[78.037916,30.365657],[78.037774,30.365006],[78.036826,30.364655],[78.036164,30.364268],[78.03542,30.363134],[78.034636,30.362281],[78.033699,30.361429],[78.032853,30.361103],[78.031854,30.360481],[78.03122,30.360232],[78.030485,30.360207],[78.029736,30.360779],[78.028973,30.36104],[78.02831,30.360643],[78.027979,30.360531],[78.027359,30.360294],[78.027071,30.359635],[78.026639,30.359225],[78.025371,30.357833],[78.023772,30.356739],[78.022688,30.356262],[78.02183,30.355898],[78.021006,30.356068],[78.020591,30.35604],[78.01988,30.356167],[78.019384,30.356239],[78.01848,30.356475],[78.017935,30.356621],[78.017278,30.356919],[78.017245,30.356941],[78.017066,30.357056],[78.016814,30.357162],[78.016541,30.35734],[78.016136,30.35754],[78.015793,30.357602]]}},{"type":"Feature","properties":{"k":"river","r":2,"name":""},"geometry":{"type":"LineString","coordinates":[[78.020867,30.329725],[78.020856,30.329706],[78.02083,30.329542],[78.020324,30.328965],[78.020236,30.328798],[78.020411,30.328308],[78.020559,30.328102],[78.020669,30.327993],[78.021011,30.327773],[78.021101,30.327667],[78.021182,30.327419],[78.021195,30.327228],[78.021204,30.327085],[78.021114,30.32672],[78.020982,30.326497],[78.02063,30.326232],[78.020514,30.326232],[78.019977,30.326291]]}},{"type":"Feature","properties":{"k":"river","r":2,"name":""},"geometry":{"type":"LineString","coordinates":[[78.022035,30.331046],[78.021971,30.330964]]}},{"type":"Feature","properties":{"k":"river","r":2,"name":""},"geometry":{"type":"LineString","coordinates":[[78.021971,30.330964],[78.021798,30.330741],[78.021598,30.330348],[78.021485,30.330188]]}},{"type":"Feature","properties":{"k":"river","r":2,"name":""},"geometry":{"type":"LineString","coordinates":[[78.020915,30.329802],[78.020867,30.329725]]}},{"type":"Feature","properties":{"k":"river","r":2,"name":""},"geometry":{"type":"LineString","coordinates":[[78.022278,30.331221],[78.022137,30.331178],[78.022035,30.331046]]}},{"type":"Feature","properties":{"k":"river","r":2,"name":""},"geometry":{"type":"LineString","coordinates":[[78.022327,30.331236],[78.0223,30.331227],[78.022278,30.331221]]}},{"type":"Feature","properties":{"k":"river","r":2,"name":""},"geometry":{"type":"LineString","coordinates":[[78.022842,30.331391],[78.022327,30.331236]]}},{"type":"Feature","properties":{"k":"river","r":2,"name":""},"geometry":{"type":"LineString","coordinates":[[78.022903,30.33141],[78.022873,30.3314],[78.022842,30.331391]]}},{"type":"Feature","properties":{"k":"river","r":2,"name":""},"geometry":{"type":"LineString","coordinates":[[78.024666,30.330956],[78.024518,30.330969],[78.024283,30.331037],[78.024164,30.331118],[78.024132,30.331335],[78.024205,30.331573],[78.024189,30.331664],[78.024112,30.331705],[78.023919,30.331702],[78.022986,30.331435],[78.022903,30.33141]]}},{"type":"Feature","properties":{"k":"river","r":2,"name":""},"geometry":{"type":"LineString","coordinates":[[78.021422,30.3301],[78.021317,30.329973],[78.021179,30.329993],[78.020985,30.329873],[78.020915,30.329802]]}},{"type":"Feature","properties":{"k":"river","r":2,"name":""},"geometry":{"type":"LineString","coordinates":[[78.021485,30.330188],[78.021453,30.330143],[78.021422,30.3301]]}},{"type":"Feature","properties":{"k":"stream","r":0,"name":"Syaru Khala"},"geometry":{"type":"LineString","coordinates":[[77.953897,30.454348],[77.952907,30.453759],[77.951541,30.452134],[77.951658,30.451159],[77.951305,30.450144],[77.950622,30.449352],[77.950221,30.449033],[77.949727,30.448641],[77.948242,30.447585],[77.947536,30.446752],[77.947488,30.445818],[77.94763,30.444944],[77.948311,30.443116],[77.948413,30.44059],[77.949983,30.438951],[77.951043,30.436309],[77.951333,30.432962],[77.952056,30.431519],[77.954371,30.427591],[77.954286,30.425842],[77.952307,30.425154]]}},{"type":"Feature","properties":{"k":"stream","r":0,"name":""},"geometry":{"type":"LineString","coordinates":[[78.029666,30.438795],[78.027434,30.436649],[78.025932,30.435613],[78.023829,30.435225],[78.021834,30.434466],[78.020203,30.434133],[78.01868,30.433633],[78.01868,30.432801],[78.018358,30.431635],[78.017414,30.430636],[78.017778,30.429582],[78.018272,30.428656],[78.017843,30.427565],[78.016426,30.426436],[78.015697,30.424827],[78.016105,30.422625],[78.016233,30.421403],[78.01589,30.420515],[78.016083,30.419479],[78.01589,30.418202]]}},{"type":"Feature","properties":{"k":"stream","r":0,"name":"Kimari Khala"},"geometry":{"type":"LineString","coordinates":[[78.030433,30.427885],[78.029672,30.427241],[78.029054,30.426593],[78.028303,30.426445],[78.028271,30.426223],[78.028454,30.425756],[78.029521,30.425428],[78.030149,30.424748],[78.030342,30.423772],[78.030224,30.422199],[78.030395,30.421052],[78.030868,30.419331],[78.030782,30.417795],[78.030052,30.416389],[78.029022,30.415686],[78.027692,30.415445],[78.026233,30.415556],[78.024516,30.415926],[78.023293,30.416352],[78.021598,30.41674],[78.019216,30.416685],[78.01825,30.417258],[78.017532,30.417707],[78.01589,30.418202],[78.014689,30.417767],[78.013648,30.417925],[78.011523,30.418156],[78.010492,30.418265],[78.010416,30.418117],[78.010327,30.41795],[78.010221,30.417843],[78.009986,30.417752],[78.009941,30.417739],[78.009803,30.417701],[78.009603,30.417614],[78.009414,30.417381],[78.009149,30.417056],[78.008902,30.416771],[78.00879,30.416654],[78.008537,30.416507],[78.008113,30.416213],[78.00796,30.416025],[78.007577,30.415761],[78.007371,30.415542],[78.007282,30.415349],[78.007088,30.415136],[78.006888,30.414892],[78.006817,30.414506]]}},{"type":"Feature","properties":{"k":"stream","r":0,"name":""},"geometry":{"type":"LineString","coordinates":[[78.021319,30.454574],[78.020224,30.452725],[78.019345,30.451541],[78.018379,30.450523],[78.017585,30.449358],[78.017671,30.447027],[78.016384,30.445732],[78.015869,30.445066],[78.014495,30.444142],[78.01383,30.444021],[78.013514,30.443462],[78.012586,30.442218],[78.011577,30.441265],[78.011212,30.440432],[78.010826,30.439195],[78.008927,30.437463],[78.008519,30.436408],[78.009431,30.435188],[78.009839,30.43478],[78.010204,30.433495],[78.009689,30.432005],[78.008509,30.430118],[78.008401,30.428694],[78.00868,30.427306],[78.008637,30.425881],[78.00824,30.424993],[78.00824,30.423772],[78.008423,30.421829],[78.009303,30.4207],[78.009796,30.419757],[78.009861,30.418831],[78.009861,30.418212],[78.009941,30.417739]]}}]}